{
  "type": "FeatureCollection",
  "features": [
    {
      "type": "Feature",
      "properties": {
        "norad_id": 66760,
        "name": "TRANSPORTER-15CY",
        "group": "last-30-days",
        "lat": -20.986198347819872,
        "lon": -110.51957516509013,
        "alt_km": 516.4982177545717,
        "timestamp": "2025-12-26T19:22:37.605629+00:00",
        "meta_object_name": "TRANSPORTER-15CY",
        "meta_object_id": "2025-276CY",
        "meta_epoch": "2025-12-26T13:44:56.661792",
        "meta_mean_motion": 15.18238885,
        "meta_eccentricity": 0.00017558,
        "meta_inclination": 97.4393,
        "meta_ra_of_asc_node": 72.1228,
        "meta_arg_of_pericenter": 112.2202,
        "meta_mean_anomaly": 247.9219,
        "meta_ephemeris_type": 0,
        "meta_classification_type": "U",
        "meta_norad_cat_id": 66760,
        "meta_element_set_no": 999,
        "meta_rev_at_epoch": 422,
        "meta_bstar": 0.00050120483,
        "meta_mean_motion_dot": 0.000102,
        "meta_mean_motion_ddot": 0,
        "tle_line1": "1 66760U 25276CY  25360.57287803  .00010200  00000+0  50120-3 0  9996",
        "tle_line2": "2 66760  97.4393  72.1228 0001755 112.2202 247.9219 15.18238885  4223"
      },
      "geometry": {
        "type": "Point",
        "coordinates": [
          -110.51957516509013,
          -20.986198347819872
        ]
      }
    },
    {
      "type": "Feature",
      "properties": {
        "norad_id": 66761,
        "name": "TRANSPORTER-15CZ",
        "group": "last-30-days",
        "lat": -38.86143257503403,
        "lon": -113.68289830642588,
        "alt_km": 516.8744748651479,
        "timestamp": "2025-12-26T19:22:37.605639+00:00",
        "meta_object_name": "TRANSPORTER-15CZ",
        "meta_object_id": "2025-276CZ",
        "meta_epoch": "2025-12-26T15:15:07.873056",
        "meta_mean_motion": 15.18558284,
        "meta_eccentricity": 0.00017247,
        "meta_inclination": 97.4389,
        "meta_ra_of_asc_node": 72.1915,
        "meta_arg_of_pericenter": 121.8499,
        "meta_mean_anomaly": 238.2903,
        "meta_ephemeris_type": 0,
        "meta_classification_type": "U",
        "meta_norad_cat_id": 66761,
        "meta_element_set_no": 999,
        "meta_rev_at_epoch": 423,
        "meta_bstar": 0.00054951585,
        "meta_mean_motion_dot": 0.00011295,
        "meta_mean_motion_ddot": 0,
        "tle_line1": "1 66761U 25276CZ  25360.63550779  .00011295  00000+0  54952-3 0  9991",
        "tle_line2": "2 66761  97.4389  72.1915 0001724 121.8499 238.2903 15.18558284  4234"
      },
      "geometry": {
        "type": "Point",
        "coordinates": [
          -113.68289830642588,
          -38.86143257503403
        ]
      }
    },
    {
      "type": "Feature",
      "properties": {
        "norad_id": 66762,
        "name": "HYDROGNSS-1",
        "group": "last-30-days",
        "lat": 63.083101583478154,
        "lon": -92.76373306579964,
        "alt_km": 508.0524634252597,
        "timestamp": "2025-12-26T19:22:37.605649+00:00",
        "meta_object_name": "HYDROGNSS-1",
        "meta_object_id": "2025-276DA",
        "meta_epoch": "2025-12-26T10:57:15.800832",
        "meta_mean_motion": 15.17329748,
        "meta_eccentricity": 0.00010339,
        "meta_inclination": 97.4401,
        "meta_ra_of_asc_node": 71.976,
        "meta_arg_of_pericenter": 229.4074,
        "meta_mean_anomaly": 130.7069,
        "meta_ephemeris_type": 0,
        "meta_classification_type": "U",
        "meta_norad_cat_id": 66762,
        "meta_element_set_no": 999,
        "meta_rev_at_epoch": 420,
        "meta_bstar": 0.0002691441,
        "meta_mean_motion_dot": 5.302e-05,
        "meta_mean_motion_ddot": 0,
        "tle_line1": "1 66762U 25276DA  25360.45643288  .00005302  00000+0  26914-3 0  9999",
        "tle_line2": "2 66762  97.4401  71.9760 0001033 229.4074 130.7069 15.17329748  4208"
      },
      "geometry": {
        "type": "Point",
        "coordinates": [
          -92.76373306579964,
          63.083101583478154
        ]
      }
    },
    {
      "type": "Feature",
      "properties": {
        "norad_id": 66763,
        "name": "HYDROGNSS-2",
        "group": "last-30-days",
        "lat": 50.62339007863141,
        "lon": -98.50704700185631,
        "alt_km": 508.90658498912126,
        "timestamp": "2025-12-26T19:22:37.605661+00:00",
        "meta_object_name": "HYDROGNSS-2",
        "meta_object_id": "2025-276DB",
        "meta_epoch": "2025-12-26T01:24:10.974240",
        "meta_mean_motion": 15.17451017,
        "meta_eccentricity": 0.00016493,
        "meta_inclination": 97.4407,
        "meta_ra_of_asc_node": 71.5946,
        "meta_arg_of_pericenter": 220.2496,
        "meta_mean_anomaly": 139.8616,
        "meta_ephemeris_type": 0,
        "meta_classification_type": "U",
        "meta_norad_cat_id": 66763,
        "meta_element_set_no": 999,
        "meta_rev_at_epoch": 414,
        "meta_bstar": 0.00018696789,
        "meta_mean_motion_dot": 3.675e-05,
        "meta_mean_motion_ddot": 0,
        "tle_line1": "1 66763U 25276DB  25360.05846035  .00003675  00000+0  18697-3 0  9991",
        "tle_line2": "2 66763  97.4407  71.5946 0001649 220.2496 139.8616 15.17451017  4143"
      },
      "geometry": {
        "type": "Point",
        "coordinates": [
          -98.50704700185631,
          50.62339007863141
        ]
      }
    },
    {
      "type": "Feature",
      "properties": {
        "norad_id": 66764,
        "name": "TRANSPORTER-15DC",
        "group": "last-30-days",
        "lat": 23.35120953292376,
        "lon": -104.43027046784664,
        "alt_km": 510.79243105491787,
        "timestamp": "2025-12-26T19:22:37.605670+00:00",
        "meta_object_name": "TRANSPORTER-15DC",
        "meta_object_id": "2025-276DC",
        "meta_epoch": "2025-12-26T13:56:36.579552",
        "meta_mean_motion": 15.17718676,
        "meta_eccentricity": 0.00024767,
        "meta_inclination": 97.4397,
        "meta_ra_of_asc_node": 72.1132,
        "meta_arg_of_pericenter": 181.8453,
        "meta_mean_anomaly": 178.2772,
        "meta_ephemeris_type": 0,
        "meta_classification_type": "U",
        "meta_norad_cat_id": 66764,
        "meta_element_set_no": 999,
        "meta_rev_at_epoch": 422,
        "meta_bstar": 0.00052112761,
        "meta_mean_motion_dot": 0.00010452,
        "meta_mean_motion_ddot": 0,
        "tle_line1": "1 66764U 25276DC  25360.58097893  .00010452  00000+0  52113-3 0  9992",
        "tle_line2": "2 66764  97.4397  72.1132 0002476 181.8453 178.2772 15.17718676  4226"
      },
      "geometry": {
        "type": "Point",
        "coordinates": [
          -104.43027046784664,
          23.35120953292376
        ]
      }
    },
    {
      "type": "Feature",
      "properties": {
        "norad_id": 66765,
        "name": "TRANSPORTER-15DD",
        "group": "last-30-days",
        "lat": -60.36689952058006,
        "lon": -120.90520378168661,
        "alt_km": 517.3518227463392,
        "timestamp": "2025-12-26T19:22:37.605683+00:00",
        "meta_object_name": "TRANSPORTER-15DD",
        "meta_object_id": "2025-276DD",
        "meta_epoch": "2025-12-26T15:09:22.428576",
        "meta_mean_motion": 15.18829391,
        "meta_eccentricity": 0.00019609,
        "meta_inclination": 97.4413,
        "meta_ra_of_asc_node": 72.205,
        "meta_arg_of_pericenter": 114.9939,
        "meta_mean_anomaly": 245.1499,
        "meta_ephemeris_type": 0,
        "meta_classification_type": "U",
        "meta_norad_cat_id": 66765,
        "meta_element_set_no": 999,
        "meta_rev_at_epoch": 423,
        "meta_bstar": 0.0006875398,
        "meta_mean_motion_dot": 0.00014266,
        "meta_mean_motion_ddot": 0,
        "tle_line1": "1 66765U 25276DD  25360.63150959  .00014266  00000+0  68754-3 0  9997",
        "tle_line2": "2 66765  97.4413  72.2050 0001960 114.9939 245.1499 15.18829391  4238"
      },
      "geometry": {
        "type": "Point",
        "coordinates": [
          -120.90520378168661,
          -60.36689952058006
        ]
      }
    },
    {
      "type": "Feature",
      "properties": {
        "norad_id": 66766,
        "name": "TRANSPORTER-15DE",
        "group": "last-30-days",
        "lat": -40.976842407636624,
        "lon": -114.16427374501032,
        "alt_km": 518.024894744728,
        "timestamp": "2025-12-26T19:22:37.605693+00:00",
        "meta_object_name": "TRANSPORTER-15DE",
        "meta_object_id": "2025-276DE",
        "meta_epoch": "2025-12-26T15:14:32.983008",
        "meta_mean_motion": 15.18463173,
        "meta_eccentricity": 0.00019292,
        "meta_inclination": 97.4355,
        "meta_ra_of_asc_node": 72.1797,
        "meta_arg_of_pericenter": 87.5181,
        "meta_mean_anomaly": 272.6274,
        "meta_ephemeris_type": 0,
        "meta_classification_type": "U",
        "meta_norad_cat_id": 66766,
        "meta_element_set_no": 999,
        "meta_rev_at_epoch": 423,
        "meta_bstar": 0.00055338234,
        "meta_mean_motion_dot": 0.00011344,
        "meta_mean_motion_ddot": 0,
        "tle_line1": "1 66766U 25276DE  25360.63510397  .00011344  00000+0  55338-3 0  9992",
        "tle_line2": "2 66766  97.4355  72.1797 0001929  87.5181 272.6274 15.18463173  4238"
      },
      "geometry": {
        "type": "Point",
        "coordinates": [
          -114.16427374501032,
          -40.976842407636624
        ]
      }
    }
  ]
}